NORAD_CAT_ID,OBJECT_NAME,OBJECT_TYPE,EPOCH,MEAN_MOTION,ECCENTRICITY,INCLINATION,RA_OF_ASC_NODE,ARG_OF_PERICENTER,MEAN_ANOMALY,BSTAR,MEAN_MOTION_DOT,MEAN_MOTION_DDOT,TLE_LINE0,TLE_LINE1,TLE_LINE2,SEMIMAJOR_AXIS,PERIOD,APOGEE,PERIGEE,DECAYED
49411.0,STARLINK-3162,PAYLOAD,2023-06-11 08:50:02,15.08845591,0.0001072,53.2194,38.7167,102.1436,257.9677,-2.0953e-05,-6.21e-06,0.0,0 STARLINK-3162,1 49411U 21104D   23162.36808252 -.00000621  00000-0 -20953-4 0  9999,2 49411  53.2194  38.7167 0001072 102.1436 257.9677 15.08845591 87457,6917.863,95.437,540.47,538.987,0.0
49411.0,STARLINK-3162,PAYLOAD,2023-06-11 15:11:35,15.0883692,0.0001346,53.2196,37.5237,81.2484,278.8661,5.1204e-05,5.27e-06,0.0,0 STARLINK-3162,1 49411U 21104D   23162.63304775  .00000527  00000-0  51204-4 0  9996,2 49411  53.2196  37.5237 0001346  81.2484 278.8661 15.08836920 88573,6917.89,95.438,540.686,538.824,0.0
49411.0,STARLINK-3162,PAYLOAD,2023-06-12 08:40:49,15.08841004,0.0001063,53.2187,34.254,85.3817,274.7297,5.1958e-05,5.39e-06,0.0,0 STARLINK-3162,1 49411U 21104D   23163.36168439  .00000539  00000-0  51958-4 0  9991,2 49411  53.2187  34.2540 0001063  85.3817 274.7297 15.08841004 87607,6917.877,95.437,540.478,539.007,0.0
49411.0,STARLINK-3162,PAYLOAD,2023-06-12 21:23:54,15.08840169,0.0001047,53.2188,31.8749,82.831,277.2801,8.3535e-05,1.042e-05,0.0,0 STARLINK-3162,1 49411U 21104D   23163.89160422  .00001042  00000-0  83535-4 0  9999,2 49411  53.2188  31.8749 0001047  82.8310 277.2801 15.08840169 87682,6917.88,95.438,540.469,539.021,0.0
49411.0,STARLINK-3162,PAYLOAD,2023-06-13 00:34:40,15.08843575,0.000108,53.2188,31.2802,83.2091,276.9024,2.8877e-05,1.72e-06,0.0,0 STARLINK-3162,1 49411U 21104D   23164.02408359  .00000172  00000-0  28877-4 0  9990,2 49411  53.2188  31.2802 0001080  83.2091 276.9024 15.08843575 88783,6917.869,95.437,540.482,538.987,0.0
49411.0,STARLINK-3162,PAYLOAD,2023-06-13 14:53:09,15.08834349,0.0001127,53.2186,28.6034,89.6892,270.4229,1.6769e-05,-2.1e-07,0.0,0 STARLINK-3162,1 49411U 21104D   23164.62024985 -.00000021  00000-0  16769-4 0  9996,2 49411  53.2186  28.6034 0001127  89.6892 270.4229 15.08834349 87794,6917.898,95.438,540.542,538.983,0.0
49411.0,STARLINK-3162,PAYLOAD,2023-06-13 21:14:41,15.08836583,8.7e-05,53.2185,27.4139,93.2231,266.8861,9.2053e-05,1.177e-05,0.0,0 STARLINK-3162,1 49411U 21104D   23164.88520610  .00001177  00000-0  92053-4 0  9992,2 49411  53.2185  27.4139 0000870  93.2231 266.8861 15.08836583 87836,6917.891,95.438,540.358,539.154,0.0
49411.0,STARLINK-3162,PAYLOAD,2023-06-14 00:25:27,15.08843743,9.93e-05,53.2187,26.8188,99.1985,260.9119,6.1337e-06,-1.9e-06,0.0,0 STARLINK-3162,1 49411U 21104D   23165.01768370 -.00000190  00000-0  61337-5 0  9992,2 49411  53.2187  26.8188 0000993  99.1985 260.9119 15.08843743 88931,6917.869,95.437,540.421,539.047,0.0
49411.0,STARLINK-3162,PAYLOAD,2023-06-14 14:43:56,15.08836933,9.56e-05,53.2182,24.1432,89.0257,271.0845,5.6223e-05,6.07e-06,0.0,0 STARLINK-3162,1 49411U 21104D   23165.61384690  .00000607  00000-0  56223-4 0  9996,2 49411  53.2182  24.1432 0000956  89.0257 271.0845 15.08836933 89021,6917.89,95.438,540.416,539.093,0.0
49411.0,STARLINK-3162,PAYLOAD,2023-06-14 21:05:28,15.08841145,0.0001051,53.2182,22.9544,86.9434,273.1679,8.0865e-05,9.99e-06,0.0,0 STARLINK-3162,1 49411U 21104D   23165.87880391  .00000999  00000-0  80865-4 0  9996,2 49411  53.2182  22.9544 0001051  86.9434 273.1679 15.08841145 87983,6917.877,95.437,540.469,539.015,0.0
49411.0,STARLINK-3162,PAYLOAD,2023-06-15 00:16:14,15.0884434,0.0001045,53.2185,22.3601,86.4363,273.6749,3.5123e-05,2.71e-06,0.0,0 STARLINK-3162,1 49411U 21104D   23166.01128330  .00000271  00000-0  35123-4 0  9991,2 49411  53.2185  22.3601 0001045  86.4363 273.6749 15.08844340 89089,6917.867,95.437,540.455,539.009,0.0
49411.0,STARLINK-3162,PAYLOAD,2023-06-15 17:45:29,15.08838404,0.0001062,53.2177,19.0889,84.2579,275.8534,4.7304e-05,4.65e-06,0.0,0 STARLINK-3162,1 49411U 21104D   23166.73992758  .00000465  00000-0  47304-4 0  9992,2 49411  53.2177  19.0889 0001062  84.2579 275.8534 15.08838404 89197,6917.885,95.438,540.485,539.016,0.0
49411.0,STARLINK-3162,PAYLOAD,2023-06-16 00:07:01,15.08844609,0.0001038,53.2188,17.9004,85.9199,274.1912,9.8752e-05,1.284e-05,0.0,0 STARLINK-3162,1 49411U 21104D   23167.00488211  .00001284  00000-0  98752-4 0  9990,2 49411  53.2188  17.9004 0001038  85.9199 274.1912 15.08844609 89235,6917.866,95.437,540.449,539.013,0.0
49411.0,STARLINK-3162,PAYLOAD,2023-06-16 20:47:01,15.08851372,0.0001156,53.2179,14.0357,93.0512,267.0613,0.00013166,1.809e-05,0.0,0 STARLINK-3162,1 49411U 21104D   23167.86599535  .00001809  00000-0  13166-3 0  9994,2 49411  53.2179  14.0357 0001156  93.0512 267.0613 15.08851372 88282,6917.846,95.437,540.51,538.911,0.0
49411.0,STARLINK-3162,PAYLOAD,2023-06-16 23:57:47,15.0885564,0.0001061,53.2186,13.4395,93.2577,266.8537,0.00016361,2.318e-05,0.0,0 STARLINK-3162,1 49411U 21104D   23167.99847150  .00002318  00000-0  16361-3 0  9993,2 49411  53.2186  13.4395 0001061  93.2577 266.8537 15.08855640 89389,6917.833,95.437,540.432,538.964,0.0
49411.0,STARLINK-3162,PAYLOAD,2023-06-17 06:19:22,15.08834917,0.0002001,53.2188,12.2496,72.7967,287.3244,3.629e-05,2.89e-06,0.0,0 STARLINK-3162,1 49411U 21104D   23168.26345213  .00000289  00000-0  36290-4 0  9996,2 49411  53.2188  12.2496 0002001  72.7967 287.3244 15.08834917 89422,6917.896,95.438,541.145,538.377,0.0
49411.0,STARLINK-3162,PAYLOAD,2023-06-17 14:16:18,15.08822979,0.0001409,53.2203,10.7668,95.9203,264.195,-0.00010328,-1.93e-05,0.0,0 STARLINK-3162,1 49411U 21104D   23168.59466330 -.00001930  00000-0 -10328-3 0  9995,2 49411  53.2203  10.7668 0001409  95.9203 264.1950 15.08822979 89472,6917.932,95.439,540.772,538.823,0.0
49411.0,STARLINK-3162,PAYLOAD,2023-06-17 20:37:51,15.08821477,0.000143,53.2203,9.5773,95.4254,264.6902,-0.00011439,-2.107e-05,0.0,0 STARLINK-3162,1 49411U 21104D   23168.85962710 -.00002107  00000-0 -11439-3 0  9998,2 49411  53.2203   9.5773 0001430  95.4254 264.6902 15.08821477 88439,6917.937,95.439,540.791,538.813,0.0
49411.0,STARLINK-3162,PAYLOAD,2023-06-18 06:10:10,15.08826802,0.0001173,53.2203,7.7924,87.2329,272.8797,-6.1932e-05,-1.273e-05,0.0,0 STARLINK-3162,1 49411U 21104D   23169.25706604 -.00001273  00000-0 -61932-4 0  9998,2 49411  53.2203   7.7924 0001173  87.2329 272.8797 15.08826802 88499,6917.921,95.438,540.597,538.974,0.0
49411.0,STARLINK-3162,PAYLOAD,2023-06-18 22:04:00,15.0884487,9.79e-05,53.219,4.8168,82.3214,277.7889,1.8895e-05,1.3e-07,0.0,0 STARLINK-3162,1 49411U 21104D   23169.91945493  .00000013  00000-0  18895-4 0  9991,2 49411  53.2190   4.8168 0000979  82.3214 277.7889 15.08844870 89676,6917.866,95.437,540.408,539.053,0.0
49411.0,STARLINK-3162,PAYLOAD,2023-06-19 06:00:56,15.08850135,0.000103,53.2195,3.3309,84.6824,275.4285,5.1333e-05,5.29e-06,0.0,0 STARLINK-3162,1 49411U 21104D   23170.25065111  .00000529  00000-0  51333-4 0  9996,2 49411  53.2195   3.3309 0001030  84.6824 275.4285 15.08850135 88645,6917.849,95.437,540.427,539.002,0.0
49411.0,STARLINK-3162,PAYLOAD,2023-06-19 20:19:24,15.08851845,0.0001047,53.2185,0.6535,71.5256,288.585,0.00048097,7.378e-05,0.0,0 STARLINK-3162,1 49411U 21104D   23170.84681379  .00007378  00000-0  48097-3 0  9992,2 49411  53.2185   0.6535 0001047  71.5256 288.5850 15.08851845 89819,6917.844,95.437,540.433,538.985,0.0
49411.0,STARLINK-3162,PAYLOAD,2023-06-20 12:13:16,15.08847645,0.0001105,53.219,357.6802,83.7957,276.3161,0.00016579,2.352e-05,0.0,0 STARLINK-3162,1 49411U 21104D   23171.50921516  .00002352  00000-0  16579-3 0  9993,2 49411  53.2190 357.6802 0001105  83.7957 276.3161 15.08847645 88839,6917.857,95.437,540.486,538.958,0.0
49411.0,STARLINK-3162,PAYLOAD,2023-06-20 16:59:25,15.08848966,0.000114,53.2184,356.7874,84.5943,275.5179,0.00013596,1.877e-05,0.0,0 STARLINK-3162,1 49411U 21104D   23171.70793298  .00001877  00000-0  13596-3 0  9996,2 49411  53.2184 356.7874 0001140  84.5943 275.5179 15.08848966 89944,6917.853,95.437,540.507,538.929,0.0
49411.0,STARLINK-3162,PAYLOAD,2023-06-20 20:10:11,15.08851765,8.68e-05,53.2177,356.1916,98.4617,261.6473,0.00013692,1.893e-05,0.0,0 STARLINK-3162,1 49411U 21104D   23171.84041002  .00001893  00000-0  13692-3 0  9995,2 49411  53.2177 356.1916 0000868  98.4617 261.6473 15.08851765 88881,6917.844,95.437,540.31,539.109,0.0
49411.0,STARLINK-3162,PAYLOAD,2023-06-20 21:45:34,15.08852135,8.74e-05,53.2178,355.8942,95.2199,264.8893,0.00014513,2.024e-05,0.0,0 STARLINK-3162,1 49411U 21104D   23171.90664969  .00002024  00000-0  14513-3 0  9995,2 49411  53.2178 355.8942 0000874  95.2199 264.8893 15.08852135 88898,6917.843,95.437,540.313,539.104,0.0
49411.0,STARLINK-3162,PAYLOAD,2023-06-21 18:25:35,15.08847324,9.6e-05,53.218,352.0296,86.8135,273.2967,-1.4895e-05,-5.25e-06,0.0,0 STARLINK-3162,1 49411U 21104D   23172.76777125 -.00000525  00000-0 -14895-4 0  9999,2 49411  53.2180 352.0296 0000960  86.8135 273.2967 15.08847324 90101,6917.858,95.437,540.387,539.059,0.0
49411.0,STARLINK-3162,PAYLOAD,2023-06-22 18:16:22,15.08841142,0.0001028,53.2185,347.568,103.7732,256.3375,6.4873e-05,7.45e-06,0.0,0 STARLINK-3162,1 49411U 21104D   23173.76137488  .00000745  00000-0  64873-4 0  9995,2 49411  53.2185 347.5680 0001028 103.7732 256.3375 15.08841142 90253,6917.877,95.437,540.453,539.031,0.0
49411.0,STARLINK-3162,PAYLOAD,2023-06-23 11:45:37,15.08835714,0.0001115,53.2178,344.2995,85.9245,274.1875,2.1522e-05,5.5e-07,0.0,0 STARLINK-3162,1 49411U 21104D   23174.49001972  .00000055  00000-0  21522-4 0  9992,2 49411  53.2178 344.2995 0001115  85.9245 274.1875 15.08835714 90368,6917.893,95.438,540.53,538.987,0.0
49411.0,STARLINK-3162,PAYLOAD,2023-06-24 17:57:57,15.0884094,9.66e-05,53.2181,338.6514,75.449,284.661,0.00015697,2.211e-05,0.0,0 STARLINK-3162,1 49411U 21104D   23175.74857945  .00002211  00000-0  15697-3 0  9991,2 49411  53.2181 338.6514 0000966  75.4490 284.6610 15.08840940 90556,6917.878,95.437,540.411,539.074,0.0
